{"fetched_at":"2026-07-18T17:30:26.009Z","source":"https://celestrak.org/NORAD/elements/gp.php?NAME=WORLDVIEW&FORMAT=JSON","constellation":"worldview","records":[{"OBJECT_NAME":"WORLDVIEW-1 (WV-1)","OBJECT_ID":"2007-041A","EPOCH":"2026-07-18T06:34:55.424640","CLASSIFICATION_TYPE":"U","MEAN_MOTION":15.24578191,"ECCENTRICITY":0.00018209,"INCLINATION":97.3907,"RA_OF_ASC_NODE":318.583,"ARG_OF_PERICENTER":192.8605,"MEAN_ANOMALY":167.2586,"EPHEMERIS_TYPE":0,"NORAD_CAT_ID":32060,"ELEMENT_SET_NO":999,"REV_AT_EPOCH":4761,"BSTAR":0.00012864186,"MEAN_MOTION_DOT":0.00003098,"MEAN_MOTION_DDOT":0},{"OBJECT_NAME":"WORLDVIEW-2 (WV-2)","OBJECT_ID":"2009-055A","EPOCH":"2026-07-18T06:26:53.562336","CLASSIFICATION_TYPE":"U","MEAN_MOTION":14.37907448,"ECCENTRICITY":0.00054196,"INCLINATION":98.4754,"RA_OF_ASC_NODE":272.2951,"ARG_OF_PERICENTER":122.4763,"MEAN_ANOMALY":237.6949,"EPHEMERIS_TYPE":0,"NORAD_CAT_ID":35946,"ELEMENT_SET_NO":999,"REV_AT_EPOCH":88011,"BSTAR":0.000028061748,"MEAN_MOTION_DOT":4.1e-7,"MEAN_MOTION_DDOT":0},{"OBJECT_NAME":"WORLDVIEW-3 (WV-3)","OBJECT_ID":"2014-048A","EPOCH":"2026-07-18T05:30:01.920096","CLASSIFICATION_TYPE":"U","MEAN_MOTION":14.85066765,"ECCENTRICITY":0.00015259,"INCLINATION":97.8555,"RA_OF_ASC_NODE":273.6322,"ARG_OF_PERICENTER":151.4596,"MEAN_ANOMALY":208.6702,"EPHEMERIS_TYPE":0,"NORAD_CAT_ID":40115,"ELEMENT_SET_NO":999,"REV_AT_EPOCH":64651,"BSTAR":0.000046383832,"MEAN_MOTION_DOT":0.00000343,"MEAN_MOTION_DDOT":0}]}
