WORLDVIEW-1 (WV-1)      
1 32060U 07041A   26199.27425260  .00003098  00000+0  12864-3 0  9991
2 32060  97.3907 318.5830 0001820 192.8605 167.2586 15.24578191 47614
WORLDVIEW-2 (WV-2)      
1 35946U 09055A   26199.26867549  .00000041  00000+0  28062-4 0  9996
2 35946  98.4754 272.2951 0005419 122.4763 237.6949 14.37907448880113
WORLDVIEW-3 (WV-3)      
1 40115U 14048A   26199.22918889  .00000343  00000+0  46384-4 0  9990
2 40115  97.8555 273.6322 0001525 151.4596 208.6702 14.85066765646516
